{
  "type": "FeatureCollection",
  "features": [
    {
      "type": "Feature",
      "properties": {
        "norad_id": 66909,
        "name": "SILVERSAT",
        "group": "stations",
        "lat": -39.45801333439251,
        "lon": 62.10200042870021,
        "alt_km": 411.0500660069483,
        "timestamp": "2025-12-20T16:47:35.053491+00:00",
        "meta_object_name": "SILVERSAT",
        "meta_object_id": "1998-067XV",
        "meta_epoch": "2025-12-19T13:13:09.424128",
        "meta_mean_motion": 15.5251652,
        "meta_eccentricity": 0.0003839,
        "meta_inclination": 51.6306,
        "meta_ra_of_asc_node": 108.5226,
        "meta_arg_of_pericenter": 268.696,
        "meta_mean_anomaly": 91.359,
        "meta_ephemeris_type": 0,
        "meta_classification_type": "U",
        "meta_norad_cat_id": 66909,
        "meta_element_set_no": 999,
        "meta_rev_at_epoch": 267,
        "meta_bstar": 0.00079912,
        "meta_mean_motion_dot": 0.00049748,
        "meta_mean_motion_ddot": 0,
        "tle_line1": "1 66909U 98067XV  25353.55080352  .00049748  00000+0  79912-3 0  9998",
        "tle_line2": "2 66909  51.6306 108.5226 0003839 268.6960  91.3590 15.52516520  2671"
      },
      "geometry": {
        "type": "Point",
        "coordinates": [
          62.10200042870021,
          -39.45801333439251
        ]
      }
    },
    {
      "type": "Feature",
      "properties": {
        "norad_id": 66910,
        "name": "1998-067XW",
        "group": "stations",
        "lat": -33.09189170482538,
        "lon": 71.70050755884097,
        "alt_km": 411.723521833278,
        "timestamp": "2025-12-20T16:47:35.053501+00:00",
        "meta_object_name": "1998-067XW",
        "meta_object_id": "1998-067XW",
        "meta_epoch": "2025-12-20T10:48:13.120704",
        "meta_mean_motion": 15.52613612,
        "meta_eccentricity": 0.0004276,
        "meta_inclination": 51.6311,
        "meta_ra_of_asc_node": 104.0281,
        "meta_arg_of_pericenter": 248.7009,
        "meta_mean_anomaly": 111.3524,
        "meta_ephemeris_type": 0,
        "meta_classification_type": "U",
        "meta_norad_cat_id": 66910,
        "meta_element_set_no": 999,
        "meta_rev_at_epoch": 281,
        "meta_bstar": 0.00071418,
        "meta_mean_motion_dot": 0.0004454,
        "meta_mean_motion_ddot": 0,
        "tle_line1": "1 66910U 98067XW  25354.45015186  .00044540  00000+0  71418-3 0  9991",
        "tle_line2": "2 66910  51.6311 104.0281 0004276 248.7009 111.3524 15.52613612  2816"
      },
      "geometry": {
        "type": "Point",
        "coordinates": [
          71.70050755884097,
          -33.09189170482538
        ]
      }
    },
    {
      "type": "Feature",
      "properties": {
        "norad_id": 66911,
        "name": "1998-067XX",
        "group": "stations",
        "lat": -23.180079000605442,
        "lon": 82.92429946624975,
        "alt_km": 410.1782755616068,
        "timestamp": "2025-12-20T16:47:35.053511+00:00",
        "meta_object_name": "1998-067XX",
        "meta_object_id": "1998-067XX",
        "meta_epoch": "2025-12-19T19:18:04.960512",
        "meta_mean_motion": 15.52964022,
        "meta_eccentricity": 0.00039341,
        "meta_inclination": 51.6304,
        "meta_ra_of_asc_node": 107.215,
        "meta_arg_of_pericenter": 254.2011,
        "meta_mean_anomaly": 105.8545,
        "meta_ephemeris_type": 0,
        "meta_classification_type": "U",
        "meta_norad_cat_id": 66911,
        "meta_element_set_no": 999,
        "meta_rev_at_epoch": 270,
        "meta_bstar": 0.00082358587,
        "meta_mean_motion_dot": 0.00052143,
        "meta_mean_motion_ddot": 0,
        "tle_line1": "1 66911U 98067XX  25353.80422408  .00052143  00000+0  82359-3 0  9993",
        "tle_line2": "2 66911  51.6304 107.2150 0003934 254.2011 105.8545 15.52964022  2707"
      },
      "geometry": {
        "type": "Point",
        "coordinates": [
          82.92429946624975,
          -23.180079000605442
        ]
      }
    },
    {
      "type": "Feature",
      "properties": {
        "norad_id": 66912,
        "name": "1998-067XY",
        "group": "stations",
        "lat": -50.89221658569699,
        "lon": 25.79380190870037,
        "alt_km": 413.2314168626681,
        "timestamp": "2025-12-20T16:47:35.053522+00:00",
        "meta_object_name": "1998-067XY",
        "meta_object_id": "1998-067XY",
        "meta_epoch": "2025-12-19T14:52:14.043072",
        "meta_mean_motion": 15.51780846,
        "meta_eccentricity": 0.0004012,
        "meta_inclination": 51.6307,
        "meta_ra_of_asc_node": 108.231,
        "meta_arg_of_pericenter": 260.881,
        "meta_mean_anomaly": 99.1725,
        "meta_ephemeris_type": 0,
        "meta_classification_type": "U",
        "meta_norad_cat_id": 66912,
        "meta_element_set_no": 999,
        "meta_rev_at_epoch": 267,
        "meta_bstar": 0.00063264,
        "meta_mean_motion_dot": 0.00038197,
        "meta_mean_motion_ddot": 0,
        "tle_line1": "1 66912U 98067XY  25353.61960698  .00038197  00000+0  63264-3 0  9998",
        "tle_line2": "2 66912  51.6307 108.2310 0004012 260.8810  99.1725 15.51780846  2678"
      },
      "geometry": {
        "type": "Point",
        "coordinates": [
          25.79380190870037,
          -50.89221658569699
        ]
      }
    }
  ]
}